[{"OBJECT_NAME":"STARLINK-36522","OBJECT_ID":"2026-008S","EPOCH":"2026-03-05T12:21:07.450848","MEAN_MOTION":15.27573993,"ECCENTRICITY":0.0001174,"INCLINATION":43.0006,"RA_OF_ASC_NODE":228.8106,"ARG_OF_PERICENTER":249.9627,"MEAN_ANOMALY":110.1098,"EPHEMERIS_TYPE":0,"CLASSIFICATION_TYPE":"U","NORAD_CAT_ID":67461,"ELEMENT_SET_NO":999,"REV_AT_EPOCH":893,"BSTAR":0.0010542,"MEAN_MOTION_DOT":0.00028856,"MEAN_MOTION_DDOT":0},{"OBJECT_NAME":"STARLINK-36504","OBJECT_ID":"2026-008T","EPOCH":"2026-03-05T20:06:20.016288","MEAN_MOTION":15.27582469,"ECCENTRICITY":0.0002229,"INCLINATION":43.0027,"RA_OF_ASC_NODE":226.9268,"ARG_OF_PERICENTER":279.233,"MEAN_ANOMALY":80.827,"EPHEMERIS_TYPE":0,"CLASSIFICATION_TYPE":"U","NORAD_CAT_ID":67462,"ELEMENT_SET_NO":999,"REV_AT_EPOCH":898,"BSTAR":0.00095986,"MEAN_MOTION_DOT":0.00026248,"MEAN_MOTION_DDOT":0},{"OBJECT_NAME":"STARLINK-36505","OBJECT_ID":"2026-008U","EPOCH":"2026-03-05T20:00:46.965024","MEAN_MOTION":15.27615597,"ECCENTRICITY":0.000229,"INCLINATION":43.0034,"RA_OF_ASC_NODE":226.898,"ARG_OF_PERICENTER":276.2582,"MEAN_ANOMALY":83.8008,"EPHEMERIS_TYPE":0,"CLASSIFICATION_TYPE":"U","NORAD_CAT_ID":67463,"ELEMENT_SET_NO":999,"REV_AT_EPOCH":898,"BSTAR":0.0011447,"MEAN_MOTION_DOT":0.00031407,"MEAN_MOTION_DDOT":0},{"OBJECT_NAME":"STARLINK-36421","OBJECT_ID":"2026-008V","EPOCH":"2026-03-05T19:34:51.898944","MEAN_MOTION":15.27576873,"ECCENTRICITY":0.0002769,"INCLINATION":43.0017,"RA_OF_ASC_NODE":226.7646,"ARG_OF_PERICENTER":267.1738,"MEAN_ANOMALY":92.8796,"EPHEMERIS_TYPE":0,"CLASSIFICATION_TYPE":"U","NORAD_CAT_ID":67464,"ELEMENT_SET_NO":999,"REV_AT_EPOCH":898,"BSTAR":0.0009732,"MEAN_MOTION_DOT":0.00026614,"MEAN_MOTION_DDOT":0},{"OBJECT_NAME":"STARLINK-36437","OBJECT_ID":"2026-008W","EPOCH":"2026-03-05T11:55:11.652960","MEAN_MOTION":15.27590984,"ECCENTRICITY":6.66e-5,"INCLINATION":42.9963,"RA_OF_ASC_NODE":228.6594,"ARG_OF_PERICENTER":234.5805,"MEAN_ANOMALY":125.4984,"EPHEMERIS_TYPE":0,"CLASSIFICATION_TYPE":"U","NORAD_CAT_ID":67465,"ELEMENT_SET_NO":999,"REV_AT_EPOCH":893,"BSTAR":0.0011348,"MEAN_MOTION_DOT":0.00031108,"MEAN_MOTION_DDOT":0},{"OBJECT_NAME":"STARLINK-36520","OBJECT_ID":"2026-008X","EPOCH":"2026-03-05T19:14:45.050784","MEAN_MOTION":15.27609494,"ECCENTRICITY":0.0001705,"INCLINATION":42.9992,"RA_OF_ASC_NODE":227.52,"ARG_OF_PERICENTER":276.3473,"MEAN_ANOMALY":83.7184,"EPHEMERIS_TYPE":0,"CLASSIFICATION_TYPE":"U","NORAD_CAT_ID":67466,"ELEMENT_SET_NO":999,"REV_AT_EPOCH":897,"BSTAR":0.0015832,"MEAN_MOTION_DOT":0.00043601,"MEAN_MOTION_DDOT":0},{"OBJECT_NAME":"STARLINK-36425","OBJECT_ID":"2026-008Y","EPOCH":"2026-03-05T19:05:29.268096","MEAN_MOTION":15.27579049,"ECCENTRICITY":0.0001679,"INCLINATION":43.0005,"RA_OF_ASC_NODE":227.4817,"ARG_OF_PERICENTER":267.5243,"MEAN_ANOMALY":92.5417,"EPHEMERIS_TYPE":0,"CLASSIFICATION_TYPE":"U","NORAD_CAT_ID":67467,"ELEMENT_SET_NO":999,"REV_AT_EPOCH":897,"BSTAR":0.0015085,"MEAN_MOTION_DOT":0.00041483,"MEAN_MOTION_DDOT":0},{"OBJECT_NAME":"STARLINK-36414","OBJECT_ID":"2026-008Z","EPOCH":"2026-03-05T11:49:38.366688","MEAN_MOTION":15.27569758,"ECCENTRICITY":0.0001484,"INCLINATION":42.9982,"RA_OF_ASC_NODE":228.6245,"ARG_OF_PERICENTER":262.4885,"MEAN_ANOMALY":97.5798,"EPHEMERIS_TYPE":0,"CLASSIFICATION_TYPE":"U","NORAD_CAT_ID":67468,"ELEMENT_SET_NO":999,"REV_AT_EPOCH":893,"BSTAR":0.0012089,"MEAN_MOTION_DOT":0.00033144,"MEAN_MOTION_DDOT":0},{"OBJECT_NAME":"STARLINK-36441","OBJECT_ID":"2026-008AA","EPOCH":"2026-03-05T19:11:02.196672","MEAN_MOTION":15.27581094,"ECCENTRICITY":0.000163,"INCLINATION":42.9992,"RA_OF_ASC_NODE":227.4935,"ARG_OF_PERICENTER":281.8224,"MEAN_ANOMALY":78.2445,"EPHEMERIS_TYPE":0,"CLASSIFICATION_TYPE":"U","NORAD_CAT_ID":67469,"ELEMENT_SET_NO":999,"REV_AT_EPOCH":897,"BSTAR":0.00098845,"MEAN_MOTION_DOT":0.00027039,"MEAN_MOTION_DDOT":0},{"OBJECT_NAME":"STARLINK-36454","OBJECT_ID":"2026-008AB","EPOCH":"2026-03-05T19:51:31.642848","MEAN_MOTION":15.27584744,"ECCENTRICITY":0.000193,"INCLINATION":43.0017,"RA_OF_ASC_NODE":226.8372,"ARG_OF_PERICENTER":265.6032,"MEAN_ANOMALY":94.46,"EPHEMERIS_TYPE":0,"CLASSIFICATION_TYPE":"U","NORAD_CAT_ID":67470,"ELEMENT_SET_NO":999,"REV_AT_EPOCH":898,"BSTAR":0.0012291,"MEAN_MOTION_DOT":0.00033721,"MEAN_MOTION_DDOT":0},{"OBJECT_NAME":"STARLINK-36334","OBJECT_ID":"2026-008AC","EPOCH":"2026-03-05T19:20:18.434688","MEAN_MOTION":15.27561072,"ECCENTRICITY":0.0002548,"INCLINATION":43.0035,"RA_OF_ASC_NODE":227.5377,"ARG_OF_PERICENTER":262.8834,"MEAN_ANOMALY":97.1728,"EPHEMERIS_TYPE":0,"CLASSIFICATION_TYPE":"U","NORAD_CAT_ID":67471,"ELEMENT_SET_NO":999,"REV_AT_EPOCH":897,"BSTAR":0.00096794,"MEAN_MOTION_DOT":0.00026455,"MEAN_MOTION_DDOT":0},{"OBJECT_NAME":"STARLINK-36269","OBJECT_ID":"2026-008AD","EPOCH":"2026-03-05T12:43:18.453216","MEAN_MOTION":15.27606295,"ECCENTRICITY":0.0001849,"INCLINATION":42.9988,"RA_OF_ASC_NODE":228.9066,"ARG_OF_PERICENTER":269.8772,"MEAN_ANOMALY":90.1868,"EPHEMERIS_TYPE":0,"CLASSIFICATION_TYPE":"U","NORAD_CAT_ID":67472,"ELEMENT_SET_NO":999,"REV_AT_EPOCH":893,"BSTAR":0.0012531,"MEAN_MOTION_DOT":0.00034409,"MEAN_MOTION_DDOT":0},{"OBJECT_NAME":"STARLINK-36408","OBJECT_ID":"2026-008AE","EPOCH":"2026-03-05T17:14:40.195392","MEAN_MOTION":15.27584155,"ECCENTRICITY":0.0002171,"INCLINATION":42.9966,"RA_OF_ASC_NODE":227.7422,"ARG_OF_PERICENTER":281.7858,"MEAN_ANOMALY":78.275,"EPHEMERIS_TYPE":0,"CLASSIFICATION_TYPE":"U","NORAD_CAT_ID":67473,"ELEMENT_SET_NO":999,"REV_AT_EPOCH":896,"BSTAR":0.0013832,"MEAN_MOTION_DOT":0.00038002,"MEAN_MOTION_DDOT":0},{"OBJECT_NAME":"STARLINK-36551","OBJECT_ID":"2026-012A","EPOCH":"2026-03-05T19:21:02.139264","MEAN_MOTION":15.27600583,"ECCENTRICITY":0.0001517,"INCLINATION":43.0034,"RA_OF_ASC_NODE":336.7125,"ARG_OF_PERICENTER":280.9537,"MEAN_ANOMALY":79.1144,"EPHEMERIS_TYPE":0,"CLASSIFICATION_TYPE":"U","NORAD_CAT_ID":67493,"ELEMENT_SET_NO":999,"REV_AT_EPOCH":716,"BSTAR":0.00089833,"MEAN_MOTION_DOT":0.00024556,"MEAN_MOTION_DDOT":0},{"OBJECT_NAME":"STARLINK-36396","OBJECT_ID":"2026-012B","EPOCH":"2026-03-05T18:53:17.872224","MEAN_MOTION":15.27580477,"ECCENTRICITY":9.04e-5,"INCLINATION":42.9984,"RA_OF_ASC_NODE":336.5788,"ARG_OF_PERICENTER":286.6044,"MEAN_ANOMALY":73.4708,"EPHEMERIS_TYPE":0,"CLASSIFICATION_TYPE":"U","NORAD_CAT_ID":67494,"ELEMENT_SET_NO":999,"REV_AT_EPOCH":716,"BSTAR":0.0009516,"MEAN_MOTION_DOT":0.00026017,"MEAN_MOTION_DDOT":0},{"OBJECT_NAME":"STARLINK-36550","OBJECT_ID":"2026-012C","EPOCH":"2026-03-05T19:09:55.954656","MEAN_MOTION":15.27610359,"ECCENTRICITY":0.0001463,"INCLINATION":43.0015,"RA_OF_ASC_NODE":336.6574,"ARG_OF_PERICENTER":246.8782,"MEAN_ANOMALY":113.1915,"EPHEMERIS_TYPE":0,"CLASSIFICATION_TYPE":"U","NORAD_CAT_ID":67495,"ELEMENT_SET_NO":999,"REV_AT_EPOCH":716,"BSTAR":0.0013333,"MEAN_MOTION_DOT":0.00036644,"MEAN_MOTION_DDOT":0},{"OBJECT_NAME":"STARLINK-36534","OBJECT_ID":"2026-012D","EPOCH":"2026-03-05T19:00:40.910688","MEAN_MOTION":15.27600948,"ECCENTRICITY":0.000105,"INCLINATION":42.9995,"RA_OF_ASC_NODE":336.5992,"ARG_OF_PERICENTER":269.949,"MEAN_ANOMALY":90.1241,"EPHEMERIS_TYPE":0,"CLASSIFICATION_TYPE":"U","NORAD_CAT_ID":67496,"ELEMENT_SET_NO":999,"REV_AT_EPOCH":716,"BSTAR":0.0012704,"MEAN_MOTION_DOT":0.00034884,"MEAN_MOTION_DDOT":0}]
