STARLINK-36522          
1 67461U 26008S   26064.51466957  .00028856  00000+0  10542-2 0  9993
2 67461  43.0006 228.8106 0001174 249.9627 110.1098 15.27573993  8939
STARLINK-36504          
1 67462U 26008T   26064.83773167  .00026248  00000+0  95986-3 0  9992
2 67462  43.0027 226.9268 0002229 279.2330  80.8270 15.27582469  8988
STARLINK-36505          
1 67463U 26008U   26064.83387691  .00031407  00000+0  11447-2 0  9998
2 67463  43.0034 226.8980 0002290 276.2582  83.8008 15.27615597  8982
STARLINK-36421          
1 67464U 26008V   26064.81587846  .00026614  00000+0  97320-3 0  9990
2 67464  43.0017 226.7646 0002769 267.1738  92.8796 15.27576873  8982
STARLINK-36437          
1 67465U 26008W   26064.49666265  .00031108  00000+0  11348-2 0  9997
2 67465  42.9963 228.6594 0000666 234.5805 125.4984 15.27590984  8937
STARLINK-36520          
1 67466U 26008X   26064.80191031  .00043601  00000+0  15832-2 0  9990
2 67466  42.9992 227.5200 0001705 276.3473  83.7184 15.27609494  8971
STARLINK-36425          
1 67467U 26008Y   26064.79547764  .00041483  00000+0  15085-2 0  9993
2 67467  43.0005 227.4817 0001679 267.5243  92.5417 15.27579049  8978
STARLINK-36414          
1 67468U 26008Z   26064.49280517  .00033144  00000+0  12089-2 0  9997
2 67468  42.9982 228.6245 0001484 262.4885  97.5798 15.27569758  8938
STARLINK-36441          
1 67469U 26008AA  26064.79933098  .00027039  00000+0  98845-3 0  9991
2 67469  42.9992 227.4935 0001630 281.8224  78.2445 15.27581094  8974
STARLINK-36454          
1 67470U 26008AB  26064.82744957  .00033721  00000+0  12291-2 0  9996
2 67470  43.0017 226.8372 0001930 265.6032  94.4600 15.27584744  8983
STARLINK-36334          
1 67471U 26008AC  26064.80576892  .00026455  00000+0  96794-3 0  9993
2 67471  43.0035 227.5377 0002548 262.8834  97.1728 15.27561072  8971
STARLINK-36269          
1 67472U 26008AD  26064.53007469  .00034409  00000+0  12531-2 0  9997
2 67472  42.9988 228.9066 0001849 269.8772  90.1868 15.27606295  8939
STARLINK-36408          
1 67473U 26008AE  26064.71852078  .00038002  00000+0  13832-2 0  9990
2 67473  42.9966 227.7422 0002171 281.7858  78.2750 15.27584155  8966
STARLINK-36551          
1 67493U 26012A   26064.80627476  .00024556  00000+0  89833-3 0  9993
2 67493  43.0034 336.7125 0001517 280.9537  79.1144 15.27600583  7167
STARLINK-36396          
1 67494U 26012B   26064.78701241  .00026017  00000+0  95160-3 0  9998
2 67494  42.9984 336.5788 0000904 286.6044  73.4708 15.27580477  7160
STARLINK-36550          
1 67495U 26012C   26064.79856429  .00036644  00000+0  13333-2 0  9997
2 67495  43.0015 336.6574 0001463 246.8782 113.1915 15.27610359  7165
STARLINK-36534          
1 67496U 26012D   26064.79214017  .00034884  00000+0  12704-2 0  9994
2 67496  42.9995 336.5992 0001050 269.9490  90.1241 15.27600948  7167
